SENTINEL-3B             
1 43437U 18039A   26152.69100713  .00000147  00000+0  78745-4 0  9991
2 43437  98.6252 220.4449 0001027  74.4398 285.6896 14.26736995421918
FENGYUN 2H              
1 43491U 18050A   26152.94292954 -.00000120  00000+0  00000+0 0  9997
2 43491   2.9932  79.2491 0001411 128.3262 101.7577  1.00272194 29286
METOP-C                 
1 43689U 18087A   26152.86434656  .00000132  00000+0  80254-4 0  9990
2 43689  98.6650 212.7472 0001147 145.8401 214.2851 14.21507676392654
GEO-KOMPSAT-2A          
1 43823U 18100A   26152.88125772 -.00000331  00000+0  00000+0 0  9992
2 43823   0.0568 116.2615 0002381 324.7779 254.8490  1.00271705 27471
METEOR-M2 2             
1 44387U 19038A   26152.93098758  .00000303  00000+0  15103-3 0  9990
2 44387  98.9134 139.9914 0002348  71.7607 288.3827 14.24362373359126
ARKTIKA-M 1             
1 47719U 21016A   26152.04232483 -.00000216  00000+0  00000+0 0  9998
2 47719  63.2371  59.9719 7282867 269.8605  14.6968  2.00628820 38461
FENGYUN 3E              
1 49008U 21062A   26152.91036324  .00000195  00000+0  11271-3 0  9995
2 49008  98.7486 156.4884 0002580 112.6261 247.5189 14.19903679254416
GOES 18                 
1 51850U 22021A   26152.75744887  .00000109  00000+0  00000+0 0  9990
2 51850   0.0517 132.1991 0000573 337.7956 275.9327  1.00270964  6432
NOAA 21 (JPSS-2)        
1 54234U 22150A   26152.88020985  .00000080  00000+0  58796-4 0  9990
2 54234  98.7058  91.9266 0000776 199.0858 161.0290 14.19562490184373
METEOSAT-12 (MTG-I1)    
1 54743U 22170C   26152.78448902  .00000004  00000+0  00000+0 0  9995
2 54743   0.7220  20.3948 0003605  68.1046  83.7685  1.00271080 12820
TIANMU-1 03             
1 55973U 23039A   26152.91485881  .00017581  00000+0  35189-3 0  9996
2 55973  97.5225 326.2921 0004000 136.7089 223.4476 15.46819482178477
TIANMU-1 04             
1 55974U 23039B   26152.91015411  .00017810  00000+0  34935-3 0  9998
2 55974  97.5161 325.4401 0004700 135.1896 224.9734 15.47400189178482
TIANMU-1 05             
1 55975U 23039C   26152.89490063  .00018221  00000+0  36551-3 0  9999
2 55975  97.5208 325.8916 0003379 153.0167 207.1258 15.46749624178451
TIANMU-1 06             
1 55976U 23039D   26152.91261469  .00017455  00000+0  34354-3 0  9996
2 55976  97.5214 326.5307 0003852 148.7319 211.4161 15.47310527178488
FENGYUN 3G              
1 56232U 23055A   26152.92474617  .00028454  00000+0  43568-3 0  9990
2 56232  49.9933  64.7439 0005529 131.5783 228.5660 15.54060772177639
METEOR-M2 3             
1 57166U 23091A   26152.92180823  .00000009  00000+0  22913-4 0  9998
2 57166  98.6088 208.2116 0003474 198.2105 161.8950 14.24045367152341
TIANMU-1 07             
1 57399U 23101A   26152.92411365  .00006932  00000+0  24406-3 0  9995
2 57399  97.2596 203.9445 0003047 154.1691 205.9702 15.29616829159314
TIANMU-1 08             
1 57400U 23101B   26152.95621693  .00007680  00000+0  27000-3 0  9992
2 57400  97.2585 203.7485 0004632 153.5982 206.5496 15.29623185159314
TIANMU-1 09             
1 57401U 23101C   26152.93991233  .00007481  00000+0  26291-3 0  9991
2 57401  97.2543 203.1563 0003376 163.7190 196.4160 15.29647946159314
TIANMU-1 10             
1 57402U 23101D   26152.90725969  .00007477  00000+0  26298-3 0  9992
2 57402  97.2623 204.1594 0004932 168.4906 191.6449 15.29617830159300
FENGYUN 3F              
1 57490U 23111A   26152.96509823  .00000082  00000+0  58964-4 0  9996
2 57490  98.6838 223.2568 0001540 104.6804 255.4544 14.19936305146708
ARKTIKA-M 2             
1 58584U 23198A   26146.82602476  .00000165  00000+0  00000+0 0  9997
2 58584  63.2204 156.7485 6896513 267.4914  18.7881  2.00593121 17897
TIANMU-1 11             
1 58645U 23205A   26152.91522199  .00006399  00000+0  24514-3 0  9999
2 58645  97.3445 174.7134 0010487  65.1091 295.1237 15.26824378135195
TIANMU-1 12             
1 58646U 23205B   26152.95074470  .00006999  00000+0  26832-3 0  9999
2 58646  97.3434 174.5073 0008467  52.7481 307.4529 15.26784725135185
TIANMU-1 13             
1 58647U 23205C   26152.91593169  .00006504  00000+0  25067-3 0  9998
2 58647  97.3461 174.7433 0007746  35.2125 324.9624 15.26639492135177
TIANMU-1 14             
1 58648U 23205D   26152.96712810  .00006199  00000+0  23867-3 0  9996
2 58648  97.3398 173.9874 0008713  38.3031 321.8825 15.26684624135189
TIANMU-1 19             
1 58660U 23208A   26152.93222037  .00009523  00000+0  31718-3 0  9995
2 58660  97.4495 269.1581 0005163  27.5918 332.5597 15.31325166134997
TIANMU-1 20             
1 58661U 23208B   26152.91657912  .00009143  00000+0  29344-3 0  9998
2 58661  97.4437 269.7618 0007417  30.2448 329.9220 15.32516479135088
TIANMU-1 21             
1 58662U 23208C   26152.92769951  .00010953  00000+0  32684-3 0  9999
2 58662  97.4496 272.3883 0007269  23.3411 336.8160 15.34785172135222
TIANMU-1 22             
1 58663U 23208D   26152.90896426  .00008670  00000+0  29351-3 0  9996
2 58663  97.4491 269.0835 0004566  52.7985 307.3672 15.30827198134992
TIANMU-1 15             
1 58700U 24004A   26152.89512513  .00006300  00000+0  24141-3 0  9993
2 58700  97.4664 339.0844 0008084  51.9884 308.2083 15.26852156133444
TIANMU-1 16             
1 58701U 24004B   26152.94715701  .00006390  00000+0  24690-3 0  9992
2 58701  97.4612 338.3906 0007178  55.8752 304.3167 15.26579059133458
TIANMU-1 17             
1 58702U 24004C   26152.93260520  .00006480  00000+0  25034-3 0  9999
2 58702  97.4640 338.8552 0006801  61.1053 299.0868 15.26578873133448
TIANMU-1 18             
1 58703U 24004D   26152.91157302  .00006177  00000+0  23698-3 0  9998
2 58703  97.4657 339.0801 0005291  59.4023 300.7737 15.26838264133444
INSAT-3DS               
1 58990U 24033A   26152.87211457 -.00000143  00000+0  00000+0 0  9991
2 58990   0.0185 248.8576 0001689 174.5628 222.9642  1.00271540 46911
METEOR-M2 4             
1 59051U 24039A   26152.91920219  .00000012  00000+0  24860-4 0  9993
2 59051  98.7004 112.4098 0006411 206.0353 154.0503 14.22427831117096
GOES 19                 
1 60133U 24119A   26152.41320234 -.00000236  00000+0  00000+0 0  9995
2 60133   0.0529 128.6881 0000624 350.5162 204.2615  1.00272944  6802
MTG-S1                  
1 64723U 25143A   26152.85515737 -.00000019  00000+0  00000+0 0  9993
2 64723   0.6168 335.7023 0001292  38.1603 180.8604  1.00271386  3269
METOP-SGA1              
1 65159U 25172A   26152.65348878  .00000069  00000+0  51333-4 0  9991
2 65159  98.6650 212.6639 0001015  84.7717 275.3576 14.21507034 41582
FENGYUN 3H              
1 65815U 25219A   26152.67940598  .00000075  00000+0  55892-4 0  9992
2 65815  98.6765  93.7505 0001623  89.5700 270.5662 14.19917471 35187
OSCAR 7 (AO-7)          
1 07530U 74089B   26152.67419606 -.00000039  00000+0  48024-4 0  9992
2 07530 101.9902 165.7589 0012418 159.1388 316.3676 12.53697877358576
PHASE 3B (AO-10)        
1 14129U 83058B   26152.34538277  .00000141  00000+0  00000+0 0  9990
2 14129  25.9017 222.1903 6016289 111.3094 320.5872  2.05870494295162
UOSAT 2 (UO-11)         
1 14781U 84021B   26152.44791427  .00001545  00000+0  16292-3 0  9997
2 14781  97.8049 118.1998 0006338 228.7687 131.2986 14.90741108254788
LUSAT (LO-19)           
1 20442U 90005G   26152.62351736  .00000150  00000+0  70320-4 0  9996
2 20442  98.8854 173.9998 0010489 250.0638 109.9416 14.34118073900166
EYESAT A (AO-27)        
1 22825U 93061C   26152.12712906  .00000136  00000+0  68666-4 0  9997
2 22825  98.6884 219.5458 0009125 141.8908 218.2921 14.30937512704704
ITAMSAT (IO-26)         
1 22826U 93061D   26152.18123230  .00000123  00000+0  63323-4 0  9991
2 22826  98.6831 219.5158 0009863 126.7502 233.4588 14.31363861705020
RADIO ROSTO (RS15)      
1 23439U 94085A   26152.86145887 -.00000051  00000+0 -24424-3 0  9996
2 23439  64.8185 328.0028 0155486   6.7066 353.5891 11.27583661294179
JAS-2 (FO-29)           
1 24278U 96046B   26152.56287520 -.00000023  00000+0  97217-5 0  9995
2 24278  98.5252   3.5745 0350572 136.8776 226.0400 13.53273554471059
TECHSAT 1B (GO-32)      
1 25397U 98043D   26152.54067156  .00000078  00000+0  54078-4 0  9992
2 25397  99.0064 144.9051 0000246 232.4252 127.6903 14.24425146449101
ISS (ZARYA)             
1 25544U 98067A   26152.83923981  .00009943  00000+0  18476-3 0  9992
2 25544  51.6335  16.0784 0007178 123.1839 236.9840 15.49548724569372
PCSAT (NO-44)           
1 26931U 01043C   26152.79330067  .00000184  00000+0  99702-4 0  9993
2 26931  67.0512 284.0864 0006135 264.0054  96.0349 14.31949979288243
SAUDISAT 1C (SO-50)     
1 27607U 02058C   26152.44338420  .00001132  00000+0  15063-3 0  9995
2 27607  64.5506 177.6953 0075542 265.3545  93.8930 14.83009786262122
CUTE-1 (CO-55)          
1 27844U 03031E   26152.58256041  .00000351  00000+0  17079-3 0  9994
2 27844  98.6737 161.3379 0008584 225.7679 134.2796 14.24325402189456
CUBESAT XI-IV (CO-57)   
1 27848U 03031J   26152.00092913  .00000288  00000+0  14576-3 0  9999
2 27848  98.6768 160.4891 0008288 248.3946 111.6350 14.23611465189071
MOZHAETS 4 (RS22)       
1 27939U 03042A   26152.94703904  .00001135  00000+0  18318-3 0  9994
2 27939  98.3461 336.8759 0010505 323.0242 173.9991 14.73438727213305
CUBESAT XI-V            
1 28895U 05043F   26152.36703129  .00001677  00000+0  27161-3 0  9991
2 28895  98.2967 307.6587 0012837 254.1655 105.8136 14.72584583 99425
CUTE-1.7+APD II (CO-65) 
1 32785U 08021C   26152.86858607  .00005842  00000+0  37024-3 0  9997
2 32785  97.8271 133.9712 0010856  83.3885 276.8579 15.09295483982887
SEEDS II (CO-66)        
1 32791U 08021J   26152.52991697  .00019469  00000+0  62844-3 0  9992
2 32791  97.7512 149.6876 0003278  45.6468 314.5041 15.32172800984894
YUBILEINY (RS30)        
1 32953U 08025A   26152.96858975  .00000054  00000+0  31629-3 0  9992
2 32953  82.5050   4.9089 0019506 347.8590  12.2017 12.43178826817800
